[{"OBJECT_NAME":"STARLINK-36603","OBJECT_ID":"2026-018D","EPOCH":"2026-03-09T17:24:33.512832","MEAN_MOTION":15.75175646,"ECCENTRICITY":0.00011106,"INCLINATION":97.2848,"RA_OF_ASC_NODE":134.5407,"ARG_OF_PERICENTER":98.1577,"MEAN_ANOMALY":261.9814,"EPHEMERIS_TYPE":0,"CLASSIFICATION_TYPE":"U","NORAD_CAT_ID":67592,"ELEMENT_SET_NO":999,"REV_AT_EPOCH":731,"BSTAR":0.0014675317,"MEAN_MOTION_DOT":0.00224474,"MEAN_MOTION_DDOT":0},{"OBJECT_NAME":"ELECTRON KICK STAGE R\/B","OBJECT_ID":"2026-019C","EPOCH":"2026-03-09T20:46:28.681536","MEAN_MOTION":15.93555215,"ECCENTRICITY":0.00922135,"INCLINATION":97.3929,"RA_OF_ASC_NODE":196.044,"ARG_OF_PERICENTER":115.5779,"MEAN_ANOMALY":245.5063,"EPHEMERIS_TYPE":0,"CLASSIFICATION_TYPE":"U","NORAD_CAT_ID":67616,"ELEMENT_SET_NO":999,"REV_AT_EPOCH":608,"BSTAR":0.002001447,"MEAN_MOTION_DOT":0.01077156,"MEAN_MOTION_DDOT":0.0005276868}]
